{
  "type": "Feature",
  "id": "AZ-DEP-RSO-001",
  "geometry": {
    "type": "Polygon",
    "coordinates": [
      [
        [
          -110.277897,
          31.649006
        ],
        [
          -110.253897,
          31.649006
        ],
        [
          -110.253897,
          31.667006
        ],
        [
          -110.277897,
          31.667006
        ],
        [
          -110.277897,
          31.649006
        ]
      ]
    ]
  },
  "properties": {
    "featureType": "sosa:Deployment",
    "uid": "urn:os4csapi:deployment:rso:ft-huachuca:001",
    "name": "Reconnaissance & Surveillance Operation (derived from R&S plan)",
    "description": "R&S operational context (sensorized subset or full R&S depending on modeling scope). (v3.0 Part 1 doctrinal-aligned refactor; sensors added in Part 2)",
    "validTime": {
      "begin": "2026-02-27T00:00:00Z",
      "end": null
    },
    "partOf@link": {
      "href": "/sensorhub/api/deployments/AZ-DEP-ICO-001",
      "title": "Intelligence Collection Operation",
      "type": "application/geo+json"
    },
    "documentation@link": [
      {
        "href": "urn:os4csapi:doc:rso:opord",
        "title": "RSO OPORD/OPLAN reference"
      },
      {
        "href": "urn:os4csapi:doc:rso:annex-b",
        "title": "RSO Annex B (Intelligence) reference"
      },
      {
        "href": "urn:os4csapi:doc:rso:rs-plan",
        "title": "RSO R&S Plan reference"
      },
      {
        "href": "urn:os4csapi:doc:rso:ssp",
        "title": "RSO Sensor Surveillance Plan reference"
      }
    ],
    "subdeployments@link": [
      {
        "href": "/sensorhub/api/deployments/AZ-DEP-SSO-001",
        "title": "Sensor Surveillance Operation",
        "type": "application/geo+json"
      }
    ]
  }
}